{"type": "FeatureCollection", "features": [ {"type": "Feature", "properties": {"norad_id": 66459, "name": "STARLINK-35449", "group": "last-30-days", "lat": -8.402844087796487, "lon": 111.74431767338122, "alt_km": 398.61345671501385, "timestamp": "2025-12-04T05:42:42.157767+00:00", "meta": {"OBJECT_NAME": "STARLINK-35449", "OBJECT_ID": "2025-262D", "EPOCH": "2025-12-03T22:00:03.000096", "MEAN_MOTION": 15.57786359, "ECCENTRICITY": 0.00017025, "INCLINATION": 42.9993, "RA_OF_ASC_NODE": 122.7637, "ARG_OF_PERICENTER": 279.3346, "MEAN_ANOMALY": 65.2634, "EPHEMERIS_TYPE": 0, "CLASSIFICATION_TYPE": "U", "NORAD_CAT_ID": 66459, "ELEMENT_SET_NO": 999, "REV_AT_EPOCH": 422, "BSTAR": -0.031103883, "MEAN_MOTION_DOT": -0.02113476, "MEAN_MOTION_DDOT": 0}, "tle": {"line1": "1 66459U 25262D   25337.91670139 -.02113476  00000+0 -31104-1 0  9998", "line2": "2 66459  42.9993 122.7637 0001702 279.3346  65.2634 15.57786359  4220"}}, "geometry": {"type": "Point", "coordinates": [111.74431767338122, -8.402844087796487]}}, {"type": "Feature", "properties": {"norad_id": 66460, "name": "STARLINK-35424", "group": "last-30-days", "lat": -7.108688864767163, "lon": 113.16979098624606, "alt_km": 398.50337355411193, "timestamp": "2025-12-04T05:42:42.157779+00:00", "meta": {"OBJECT_NAME": "STARLINK-35424", "OBJECT_ID": "2025-262E", "EPOCH": "2025-12-03T22:00:03.000096", "MEAN_MOTION": 15.5778242, "ECCENTRICITY": 0.00017324, "INCLINATION": 42.9996, "RA_OF_ASC_NODE": 122.759, "ARG_OF_PERICENTER": 279.6752, "MEAN_ANOMALY": 66.8465, "EPHEMERIS_TYPE": 0, "CLASSIFICATION_TYPE": "U", "NORAD_CAT_ID": 66460, "ELEMENT_SET_NO": 999, "REV_AT_EPOCH": 422, "BSTAR": -0.03111682, "MEAN_MOTION_DOT": -0.02113998, "MEAN_MOTION_DDOT": 0}, "tle": {"line1": "1 66460U 25262E   25337.91670139 -.02113998  00000+0 -31117-1 0  9993", "line2": "2 66460  42.9996 122.7590 0001732 279.6752  66.8465 15.57782420  4224"}}, "geometry": {"type": "Point", "coordinates": [113.16979098624606, -7.108688864767163]}}, {"type": "Feature", "properties": {"norad_id": 66461, "name": "STARLINK-35132", "group": "last-30-days", "lat": -5.814078759100978, "lon": 114.58284031028606, "alt_km": 398.38430511134356, "timestamp": "2025-12-04T05:42:42.157789+00:00", "meta": {"OBJECT_NAME": "STARLINK-35132", "OBJECT_ID": "2025-262F", "EPOCH": "2025-12-03T22:00:03.000096", "MEAN_MOTION": 15.57794006, "ECCENTRICITY": 0.00016766, "INCLINATION": 42.9997, "RA_OF_ASC_NODE": 122.7543, "ARG_OF_PERICENTER": 279.8097, "MEAN_ANOMALY": 68.6153, "EPHEMERIS_TYPE": 0, "CLASSIFICATION_TYPE": "U", "NORAD_CAT_ID": 66461, "ELEMENT_SET_NO": 999, "REV_AT_EPOCH": 422, "BSTAR": -0.031207732, "MEAN_MOTION_DOT": -0.0212028, "MEAN_MOTION_DDOT": 0}, "tle": {"line1": "1 66461U 25262F   25337.91670139 -.02120280  00000+0 -31208-1 0  9997", "line2": "2 66461  42.9997 122.7543 0001676 279.8097  68.6153 15.57794006  4222"}}, "geometry": {"type": "Point", "coordinates": [114.58284031028606, -5.814078759100978]}}, {"type": "Feature", "properties": {"norad_id": 66462, "name": "STARLINK-35499", "group": "last-30-days", "lat": -4.5126811584052104, "lon": 115.99243010092604, "alt_km": 398.3223998106523, "timestamp": "2025-12-04T05:42:42.157801+00:00", "meta": {"OBJECT_NAME": "STARLINK-35499", "OBJECT_ID": "2025-262G", "EPOCH": "2025-12-03T22:00:03.000096", "MEAN_MOTION": 15.5779402, "ECCENTRICITY": 0.00016639, "INCLINATION": 42.9998, "RA_OF_ASC_NODE": 122.7491, "ARG_OF_PERICENTER": 277.8092, "MEAN_ANOMALY": 72.5339, "EPHEMERIS_TYPE": 0, "CLASSIFICATION_TYPE": "U", "NORAD_CAT_ID": 66462, "ELEMENT_SET_NO": 999, "REV_AT_EPOCH": 422, "BSTAR": -0.031217604, "MEAN_MOTION_DOT": -0.02120869, "MEAN_MOTION_DDOT": 0}, "tle": {"line1": "1 66462U 25262G   25337.91670139 -.02120869  00000+0 -31218-1 0  9992", "line2": "2 66462  42.9998 122.7491 0001663 277.8092  72.5339 15.57794020  4221"}}, "geometry": {"type": "Point", "coordinates": [115.99243010092604, -4.5126811584052104]}}, {"type": "Feature", "properties": {"norad_id": 66463, "name": "STARLINK-35463", "group": "last-30-days", "lat": -1.902926883918723, "lon": 118.79783578160325, "alt_km": 397.94588685837425, "timestamp": "2025-12-04T05:42:42.157811+00:00", "meta": {"OBJECT_NAME": "STARLINK-35463", "OBJECT_ID": "2025-262H", "EPOCH": "2025-12-03T22:00:03.000096", "MEAN_MOTION": 15.57782155, "ECCENTRICITY": 0.00018406, "INCLINATION": 42.9994, "RA_OF_ASC_NODE": 122.7392, "ARG_OF_PERICENTER": 282.2528, "MEAN_ANOMALY": 71.932, "EPHEMERIS_TYPE": 0, "CLASSIFICATION_TYPE": "U", "NORAD_CAT_ID": 66463, "ELEMENT_SET_NO": 999, "REV_AT_EPOCH": 422, "BSTAR": -0.031024517, "MEAN_MOTION_DOT": -0.02108476, "MEAN_MOTION_DDOT": 0}, "tle": {"line1": "1 66463U 25262H   25337.91670139 -.02108476  00000+0 -31025-1 0  9999", "line2": "2 66463  42.9994 122.7392 0001840 282.2528  71.9320 15.57782155  4228"}}, "geometry": {"type": "Point", "coordinates": [118.79783578160325, -1.902926883918723]}}, {"type": "Feature", "properties": {"norad_id": 66464, "name": "STARLINK-35435", "group": "last-30-days", "lat": -3.2100863361341885, "lon": 117.39565466710111, "alt_km": 398.0897609533995, "timestamp": "2025-12-04T05:42:42.157821+00:00", "meta": {"OBJECT_NAME": "STARLINK-35435", "OBJECT_ID": "2025-262J", "EPOCH": "2025-12-03T22:00:03.000096", "MEAN_MOTION": 15.57794398, "ECCENTRICITY": 0.00017294, "INCLINATION": 42.9997, "RA_OF_ASC_NODE": 122.7443, "ARG_OF_PERICENTER": 281.8225, "MEAN_ANOMALY": 70.4352, "EPHEMERIS_TYPE": 0, "CLASSIFICATION_TYPE": "U", "NORAD_CAT_ID": 66464, "ELEMENT_SET_NO": 999, "REV_AT_EPOCH": 422, "BSTAR": -0.031202884, "MEAN_MOTION_DOT": -0.02120053, "MEAN_MOTION_DDOT": 0}, "tle": {"line1": "1 66464U 25262J   25337.91670139 -.02120053  00000+0 -31203-1 0  9993", "line2": "2 66464  42.9997 122.7443 0001729 281.8225  70.4352 15.57794398  4225"}}, "geometry": {"type": "Point", "coordinates": [117.39565466710111, -3.2100863361341885]}}, {"type": "Feature", "properties": {"norad_id": 66465, "name": "STARLINK-35448", "group": "last-30-days", "lat": 0.7100383045354659, "lon": 121.5937969479561, "alt_km": 397.78224004212734, "timestamp": "2025-12-04T05:42:42.157833+00:00", "meta": {"OBJECT_NAME": "STARLINK-35448", "OBJECT_ID": "2025-262K", "EPOCH": "2025-12-03T22:00:03.000096", "MEAN_MOTION": 15.57794262, "ECCENTRICITY": 0.0001695, "INCLINATION": 42.9993, "RA_OF_ASC_NODE": 122.7298, "ARG_OF_PERICENTER": 279.4956, "MEAN_ANOMALY": 78.5143, "EPHEMERIS_TYPE": 0, "CLASSIFICATION_TYPE": "U", "NORAD_CAT_ID": 66465, "ELEMENT_SET_NO": 999, "REV_AT_EPOCH": 422, "BSTAR": -0.031197605, "MEAN_MOTION_DOT": -0.02119701, "MEAN_MOTION_DDOT": 0}, "tle": {"line1": "1 66465U 25262K   25337.91670139 -.02119701  00000+0 -31198-1 0  9995", "line2": "2 66465  42.9993 122.7298 0001695 279.4956  78.5143 15.57794262  4223"}}, "geometry": {"type": "Point", "coordinates": [121.5937969479561, 0.7100383045354659]}}, {"type": "Feature", "properties": {"norad_id": 66466, "name": "STARLINK-35388", "group": "last-30-days", "lat": 2.018541487350542, "lon": 122.99360889557703, "alt_km": 397.64186917543066, "timestamp": "2025-12-04T05:42:42.157843+00:00", "meta": {"OBJECT_NAME": "STARLINK-35388", "OBJECT_ID": "2025-262L", "EPOCH": "2025-12-03T22:00:03.000096", "MEAN_MOTION": 15.57782343, "ECCENTRICITY": 0.00018176, "INCLINATION": 42.9994, "RA_OF_ASC_NODE": 122.724, "ARG_OF_PERICENTER": 279.8699, "MEAN_ANOMALY": 80.0675, "EPHEMERIS_TYPE": 0, "CLASSIFICATION_TYPE": "U", "NORAD_CAT_ID": 66466, "ELEMENT_SET_NO": 999, "REV_AT_EPOCH": 422, "BSTAR": -0.031044957, "MEAN_MOTION_DOT": -0.02109709, "MEAN_MOTION_DDOT": 0}, "tle": {"line1": "1 66466U 25262L   25337.91670139 -.02109709  00000+0 -31045-1 0  9994", "line2": "2 66466  42.9994 122.7240 0001817 279.8699  80.0675 15.57782343  4221"}}, "geometry": {"type": "Point", "coordinates": [122.99360889557703, 2.018541487350542]}}, {"type": "Feature", "properties": {"norad_id": 66467, "name": "STARLINK-35682", "group": "last-30-days", "lat": -0.5940527011373636, "lon": 120.1991225291184, "alt_km": 398.04669906247545, "timestamp": "2025-12-04T05:42:42.157853+00:00", "meta": {"OBJECT_NAME": "STARLINK-35682", "OBJECT_ID": "2025-262M", "EPOCH": "2025-12-03T22:00:03.000096", "MEAN_MOTION": 15.57785073, "ECCENTRICITY": 0.00017989, "INCLINATION": 42.9995, "RA_OF_ASC_NODE": 122.7347, "ARG_OF_PERICENTER": 274.2818, "MEAN_ANOMALY": 81.8219, "EPHEMERIS_TYPE": 0, "CLASSIFICATION_TYPE": "U", "NORAD_CAT_ID": 66467, "ELEMENT_SET_NO": 999, "REV_AT_EPOCH": 422, "BSTAR": -0.03111066, "MEAN_MOTION_DOT": -0.02113863, "MEAN_MOTION_DDOT": 0}, "tle": {"line1": "1 66467U 25262M   25337.91670139 -.02113863  00000+0 -31111-1 0  9995", "line2": "2 66467  42.9995 122.7347 0001798 274.2818  81.8219 15.57785073  4227"}}, "geometry": {"type": "Point", "coordinates": [120.1991225291184, -0.5940527011373636]}}, {"type": "Feature", "properties": {"norad_id": 66468, "name": "STARLINK-35331", "group": "last-30-days", "lat": 3.321775447666238, "lon": 124.393165412201, "alt_km": 397.4744413499975, "timestamp": "2025-12-04T05:42:42.157864+00:00", "meta": {"OBJECT_NAME": "STARLINK-35331", "OBJECT_ID": "2025-262N", "EPOCH": "2025-12-03T22:00:03.000096", "MEAN_MOTION": 15.57794861, "ECCENTRICITY": 0.00016651, "INCLINATION": 42.9994, "RA_OF_ASC_NODE": 122.7201, "ARG_OF_PERICENTER": 281.3643, "MEAN_ANOMALY": 80.4789, "EPHEMERIS_TYPE": 0, "CLASSIFICATION_TYPE": "U", "NORAD_CAT_ID": 66468, "ELEMENT_SET_NO": 999, "REV_AT_EPOCH": 422, "BSTAR": -0.031209238, "MEAN_MOTION_DOT": -0.02120425, "MEAN_MOTION_DDOT": 0}, "tle": {"line1": "1 66468U 25262N   25337.91670139 -.02120425  00000+0 -31209-1 0  9996", "line2": "2 66468  42.9994 122.7201 0001665 281.3643  80.4789 15.57794861  4226"}}, "geometry": {"type": "Point", "coordinates": [124.393165412201, 3.321775447666238]}}]}